{"spkid": "50157043", "covariance": {"labels": ["e", "q", "tp", "node", "peri", "i"], "data": [["8.192780579879561E-16", "-1.619788444832314E-15", "7.508525864387286E-15", "2.026029719573862E-13", "-2.114831660934816E-13", "-2.36761913173977E-14"], ["-1.619788444832314E-15", "3.366896119432517E-15", "-2.756106374325941E-14", "-4.477222732000486E-13", "4.598191223787616E-13", "4.336277912379125E-14"], ["7.508525864387286E-15", "-2.756106374325941E-14", "3.141118673537161E-10", "1.116927818391704E-10", "2.032145696859279E-10", "-1.579814977206419E-11"], ["2.026029719573862E-13", "-4.477222732000486E-13", "1.116927818391704E-10", "1.384285701787911E-9", "-1.25852605910909E-9", "6.622039176255862E-11"], ["-2.114831660934816E-13", "4.598191223787616E-13", "2.032145696859279E-10", "-1.25852605910909E-9", "1.460785364896438E-9", "-8.231237296715405E-11"], ["-2.36761913173977E-14", "4.336277912379125E-14", "-1.579814977206419E-11", "6.622039176255862E-11", "-8.231237296715405E-11", "3.885934886029665E-11"]], "elements": [{"label": "e", "name": "e", "sigma": 2.86230336964473e-08, "units": null, "title": "eccentricity", "value": ".4950555111538207"}, {"label": "q", "sigma": 5.80249611756227e-08, "name": "q", "title": "perihelion distance", "value": "1.037160930250998", "units": "au"}, {"label": "tp", "value": "2452869.002404833346", "title": "time of perihelion passage", "units": "TDB", "name": "tp", "sigma": 1.77232013855769e-05}, {"label": "node", "sigma": 3.72059901331481e-05, "name": "om", "value": "143.7639997165114", "title": "longitude of the ascending node", "units": "deg"}, {"sigma": 3.82202219367763e-05, "name": "w", "units": "deg", "value": "175.5087596067812", "title": "argument of perihelion", "label": "peri"}, {"label": "i", "title": "inclination", "value": "5.89056839227653", "units": "deg", "sigma": 6.23372672326087e-06, "name": "i"}], "epoch": "2453038.5"}, "elements": [{"label": "e", "title": "eccentricity", "value": ".4959438955265466", "units": null, "sigma": "2.8825E-8", "name": "e"}, {"name": "a", "sigma": "2.4198E-8", "units": "au", "value": "2.05237348422668", "title": "semi-major axis", "label": "a"}, {"label": "q", "units": "au", "value": "1.034511383383909", "title": "perihelion distance", "sigma": "5.8337E-8", "name": "q"}, {"label": "i", "units": "deg", "title": "inclination; angle with respect to x-y ecliptic plane", "value": "5.904389361361636", "sigma": "6.2486E-6", "name": "i"}, {"label": "node", "name": "om", "sigma": "3.7107E-5", "units": "deg", "title": "longitude of the ascending node", "value": "143.5823552420601"}, {"title": "argument of perihelion", "value": "175.6773329312054", "units": "deg", "name": "w", "sigma": "3.8082E-5", "label": "peri"}, {"sigma": "4.9126E-5", "name": "ma", "units": "deg", "title": "mean anomaly", "value": "270.3430429766757", "label": "M"}, {"label": "tp", "name": "tp", "sigma": ".00015126", "units": "TDB", "value": "2461467.963493890017", "title": "time of perihelion passage"}, {"label": "period", "units": "d", "title": "sidereal orbital period", "value": "1073.947421340177", "name": "per", "sigma": "1.8994E-5"}, {"units": "deg/d", "title": "mean motion", "value": ".3352119413357842", "name": "n", "sigma": "5.9285E-9", "label": "n"}, {"label": "Q", "sigma": "3.62E-8", "name": "ad", "units": "au", "title": "aphelion distance", "value": "3.070235585069452"}], "epoch": "2461200.5"}